{"type": "FeatureCollection", "features": [ {"type": "Feature", "properties": {"norad_id": 39634, "name": "SENTINEL-1A", "group": "resource", "lat": -10.611312406204027, "lon": -177.32284107224342, "alt_km": 700.2223408693862, "timestamp": "2025-12-25T03:55:55.963303+00:00", "meta": {"OBJECT_NAME": "SENTINEL-1A", "OBJECT_ID": "2014-016A", "EPOCH": "2025-12-24T20:28:43.348800", "MEAN_MOTION": 14.59199256, "ECCENTRICITY": 0.0001209, "INCLINATION": 98.1799, "RA_OF_ASC_NODE": 3.9154, "ARG_OF_PERICENTER": 87.754, "MEAN_ANOMALY": 272.3798, "EPHEMERIS_TYPE": 0, "CLASSIFICATION_TYPE": "U", "NORAD_CAT_ID": 39634, "ELEMENT_SET_NO": 999, "REV_AT_EPOCH": 62459, "BSTAR": -4.2351e-05, "MEAN_MOTION_DOT": -2.45e-06, "MEAN_MOTION_DDOT": 0}, "tle": {"line1": "1 39634U 14016A   25358.85327950 -.00000245  00000+0 -42351-4 0  9990", "line2": "2 39634  98.1799   3.9154 0001209  87.7540 272.3798 14.59199256624590"}}, "geometry": {"type": "Point", "coordinates": [-177.32284107224342, -10.611312406204027]}}, {"type": "Feature", "properties": {"norad_id": 39731, "name": "KAZEOSAT 1", "group": "resource", "lat": 58.95749636467785, "lon": -95.0983863462241, "alt_km": 745.1707012028783, "timestamp": "2025-12-25T03:55:55.963314+00:00", "meta": {"OBJECT_NAME": "KAZEOSAT 1", "OBJECT_ID": "2014-024A", "EPOCH": "2025-12-24T20:43:01.252416", "MEAN_MOTION": 14.42069022, "ECCENTRICITY": 0.0001211, "INCLINATION": 98.3418, "RA_OF_ASC_NODE": 70.498, "ARG_OF_PERICENTER": 95.7904, "MEAN_ANOMALY": 264.3424, "EPHEMERIS_TYPE": 0, "CLASSIFICATION_TYPE": "U", "NORAD_CAT_ID": 39731, "ELEMENT_SET_NO": 999, "REV_AT_EPOCH": 61343, "BSTAR": 7.1837e-05, "MEAN_MOTION_DOT": 1.93e-06, "MEAN_MOTION_DDOT": 0}, "tle": {"line1": "1 39731U 14024A   25358.86320894  .00000193  00000+0  71837-4 0  9999", "line2": "2 39731  98.3418  70.4980 0001211  95.7904 264.3424 14.42069022613437"}}, "geometry": {"type": "Point", "coordinates": [-95.0983863462241, 58.95749636467785]}}, {"type": "Feature", "properties": {"norad_id": 39766, "name": "ALOS-2", "group": "resource", "lat": -53.56989328891777, "lon": -97.0424758816761, "alt_km": 638.6770206518422, "timestamp": "2025-12-25T03:55:55.963324+00:00", "meta": {"OBJECT_NAME": "ALOS-2", "OBJECT_ID": "2014-029A", "EPOCH": "2025-12-24T23:37:49.057248", "MEAN_MOTION": 14.79466578, "ECCENTRICITY": 0.0001364, "INCLINATION": 97.9226, "RA_OF_ASC_NODE": 93.6564, "ARG_OF_PERICENTER": 101.0923, "MEAN_ANOMALY": 259.0442, "EPHEMERIS_TYPE": 0, "CLASSIFICATION_TYPE": "U", "NORAD_CAT_ID": 39766, "ELEMENT_SET_NO": 999, "REV_AT_EPOCH": 62582, "BSTAR": 0.00043861, "MEAN_MOTION_DOT": 3.225e-05, "MEAN_MOTION_DDOT": 0}, "tle": {"line1": "1 39766U 14029A   25358.98459557  .00003225  00000+0  43861-3 0  9998", "line2": "2 39766  97.9226  93.6564 0001364 101.0923 259.0442 14.79466578625827"}}, "geometry": {"type": "Point", "coordinates": [-97.0424758816761, -53.56989328891777]}}, {"type": "Feature", "properties": {"norad_id": 40010, "name": "KAZEOSAT 2", "group": "resource", "lat": 38.3935968193936, "lon": -163.19562516428067, "alt_km": 613.6259935646358, "timestamp": "2025-12-25T03:55:55.963335+00:00", "meta": {"OBJECT_NAME": "KAZEOSAT 2", "OBJECT_ID": "2014-033A", "EPOCH": "2025-12-24T19:40:23.183328", "MEAN_MOTION": 14.85189074, "ECCENTRICITY": 0.0008688, "INCLINATION": 97.5496, "RA_OF_ASC_NODE": 202.5106, "ARG_OF_PERICENTER": 164.7305, "MEAN_ANOMALY": 195.4174, "EPHEMERIS_TYPE": 0, "CLASSIFICATION_TYPE": "U", "NORAD_CAT_ID": 40010, "ELEMENT_SET_NO": 999, "REV_AT_EPOCH": 62307, "BSTAR": 0.00013494, "MEAN_MOTION_DOT": 1.107e-05, "MEAN_MOTION_DDOT": 0}, "tle": {"line1": "1 40010U 14033A   25358.81971277  .00001107  00000+0  13494-3 0  9993", "line2": "2 40010  97.5496 202.5106 0008688 164.7305 195.4174 14.85189074623075"}}, "geometry": {"type": "Point", "coordinates": [-163.19562516428067, 38.3935968193936]}}, {"type": "Feature", "properties": {"norad_id": 40011, "name": "HODOYOSHI-4", "group": "resource", "lat": -50.31598013079408, "lon": -1.751410453213297, "alt_km": 607.2692933376884, "timestamp": "2025-12-25T03:55:55.963345+00:00", "meta": {"OBJECT_NAME": "HODOYOSHI-4", "OBJECT_ID": "2014-033B", "EPOCH": "2025-12-24T20:26:29.336352", "MEAN_MOTION": 14.8752387, "ECCENTRICITY": 0.0024103, "INCLINATION": 97.5412, "RA_OF_ASC_NODE": 187.1389, "ARG_OF_PERICENTER": 160.233, "MEAN_ANOMALY": 199.9827, "EPHEMERIS_TYPE": 0, "CLASSIFICATION_TYPE": "U", "NORAD_CAT_ID": 40011, "ELEMENT_SET_NO": 999, "REV_AT_EPOCH": 62288, "BSTAR": 0.00020606, "MEAN_MOTION_DOT": 1.827e-05, "MEAN_MOTION_DDOT": 0}, "tle": {"line1": "1 40011U 14033B   25358.85172843  .00001827  00000+0  20606-3 0  9992", "line2": "2 40011  97.5412 187.1389 0024103 160.2330 199.9827 14.87523870622884"}}, "geometry": {"type": "Point", "coordinates": [-1.751410453213297, -50.31598013079408]}}, {"type": "Feature", "properties": {"norad_id": 40013, "name": "DEIMOS-2", "group": "resource", "lat": -81.70603346553303, "lon": -59.01847639095684, "alt_km": 596.8010300262195, "timestamp": "2025-12-25T03:55:55.963356+00:00", "meta": {"OBJECT_NAME": "DEIMOS-2", "OBJECT_ID": "2014-033D", "EPOCH": "2025-12-24T21:53:10.478112", "MEAN_MOTION": 14.93022397, "ECCENTRICITY": 0.0001354, "INCLINATION": 97.6052, "RA_OF_ASC_NODE": 234.311, "ARG_OF_PERICENTER": 106.5986, "MEAN_ANOMALY": 253.5383, "EPHEMERIS_TYPE": 0, "CLASSIFICATION_TYPE": "U", "NORAD_CAT_ID": 40013, "ELEMENT_SET_NO": 999, "REV_AT_EPOCH": 61171, "BSTAR": 0.00015819, "MEAN_MOTION_DOT": 1.591e-05, "MEAN_MOTION_DDOT": 0}, "tle": {"line1": "1 40013U 14033D   25358.91192683  .00001591  00000+0  15819-3 0  9993", "line2": "2 40013  97.6052 234.3110 0001354 106.5986 253.5383 14.93022397611716"}}, "geometry": {"type": "Point", "coordinates": [-59.01847639095684, -81.70603346553303]}}, {"type": "Feature", "properties": {"norad_id": 40015, "name": "HODOYOSHI-3", "group": "resource", "lat": 35.985179187437815, "lon": 158.8799777836719, "alt_km": 633.9544960872136, "timestamp": "2025-12-25T03:55:55.963367+00:00", "meta": {"OBJECT_NAME": "HODOYOSHI-3", "OBJECT_ID": "2014-033F", "EPOCH": "2025-12-24T19:40:52.752000", "MEAN_MOTION": 14.84846481, "ECCENTRICITY": 0.0032504, "INCLINATION": 97.6207, "RA_OF_ASC_NODE": 164.1304, "ARG_OF_PERICENTER": 206.8915, "MEAN_ANOMALY": 153.0618, "EPHEMERIS_TYPE": 0, "CLASSIFICATION_TYPE": "U", "NORAD_CAT_ID": 40015, "ELEMENT_SET_NO": 999, "REV_AT_EPOCH": 62174, "BSTAR": 0.00019691, "MEAN_MOTION_DOT": 1.636e-05, "MEAN_MOTION_DDOT": 0}, "tle": {"line1": "1 40015U 14033F   25358.82005500  .00001636  00000+0  19691-3 0  9998", "line2": "2 40015  97.6207 164.1304 0032504 206.8915 153.0618 14.84846481621749"}}, "geometry": {"type": "Point", "coordinates": [158.8799777836719, 35.985179187437815]}}, {"type": "Feature", "properties": {"norad_id": 40053, "name": "SPOT 7", "group": "resource", "lat": 55.10960738948266, "lon": -107.28101131862344, "alt_km": 684.7278712976449, "timestamp": "2025-12-25T03:55:55.963377+00:00", "meta": {"OBJECT_NAME": "SPOT 7", "OBJECT_ID": "2014-034A", "EPOCH": "2025-12-24T20:47:26.801088", "MEAN_MOTION": 14.60748112, "ECCENTRICITY": 0.000154, "INCLINATION": 98.0887, "RA_OF_ASC_NODE": 60.6614, "ARG_OF_PERICENTER": 81.5221, "MEAN_ANOMALY": 278.6154, "EPHEMERIS_TYPE": 0, "CLASSIFICATION_TYPE": "U", "NORAD_CAT_ID": 40053, "ELEMENT_SET_NO": 999, "REV_AT_EPOCH": 61168, "BSTAR": 0.00010316, "MEAN_MOTION_DOT": 4.58e-06, "MEAN_MOTION_DDOT": 0}, "tle": {"line1": "1 40053U 14034A   25358.86628242  .00000458  00000+0  10316-3 0  9995", "line2": "2 40053  98.0887  60.6614 0001540  81.5221 278.6154 14.60748112611685"}}, "geometry": {"type": "Point", "coordinates": [-107.28101131862344, 55.10960738948266]}}, {"type": "Feature", "properties": {"norad_id": 40072, "name": "SKYSAT-B", "group": "resource", "lat": 12.025246872277375, "lon": 125.32273586083879, "alt_km": 604.576295151961, "timestamp": "2025-12-25T03:55:55.963387+00:00", "meta": {"OBJECT_NAME": "SKYSAT-B", "OBJECT_ID": "2014-037D", "EPOCH": "2025-12-24T14:15:52.514784", "MEAN_MOTION": 14.8736794, "ECCENTRICITY": 0.0006822, "INCLINATION": 98.3628, "RA_OF_ASC_NODE": 302.9274, "ARG_OF_PERICENTER": 117.0616, "MEAN_ANOMALY": 243.1296, "EPHEMERIS_TYPE": 0, "CLASSIFICATION_TYPE": "U", "NORAD_CAT_ID": 40072, "ELEMENT_SET_NO": 999, "REV_AT_EPOCH": 62000, "BSTAR": 0.00019301, "MEAN_MOTION_DOT": 1.684e-05, "MEAN_MOTION_DDOT": 0}, "tle": {"line1": "1 40072U 14037D   25358.59435781  .00001684  00000+0  19301-3 0  9998", "line2": "2 40072  98.3628 302.9274 0006822 117.0616 243.1296 14.87367940620002"}}, "geometry": {"type": "Point", "coordinates": [125.32273586083879, 12.025246872277375]}}, {"type": "Feature", "properties": {"norad_id": 40115, "name": "WORLDVIEW-3 (WV-3)", "group": "resource", "lat": -45.62904832539705, "lon": 79.42761459000666, "alt_km": 622.7912033981029, "timestamp": "2025-12-25T03:55:55.963397+00:00", "meta": {"OBJECT_NAME": "WORLDVIEW-3 (WV-3)", "OBJECT_ID": "2014-048A", "EPOCH": "2025-12-24T18:26:05.730432", "MEAN_MOTION": 14.84674175, "ECCENTRICITY": 0.000203, "INCLINATION": 97.8765, "RA_OF_ASC_NODE": 70.9014, "ARG_OF_PERICENTER": 129.6235, "MEAN_ANOMALY": 230.5159, "EPHEMERIS_TYPE": 0, "CLASSIFICATION_TYPE": "U", "NORAD_CAT_ID": 40115, "ELEMENT_SET_NO": 999, "REV_AT_EPOCH": 61602, "BSTAR": 0.00012669, "MEAN_MOTION_DOT": 1.018e-05, "MEAN_MOTION_DDOT": 0}, "tle": {"line1": "1 40115U 14048A   25358.76812188  .00001018  00000+0  12669-3 0  9998", "line2": "2 40115  97.8765  70.9014 0002030 129.6235 230.5159 14.84674175616026"}}, "geometry": {"type": "Point", "coordinates": [79.42761459000666, -45.62904832539705]}}]}